{"type": "FeatureCollection", "features": [ {"type": "Feature", "properties": {"norad_id": 33698, "name": "FENGYUN 1C DEB", "group": "fengyun-1c-debris", "lat": -45.32589056681942, "lon": -29.864847213304554, "alt_km": 776.6468199771616, "timestamp": "2025-12-24T09:46:31.291308+00:00", "meta": {"OBJECT_NAME": "FENGYUN 1C DEB", "OBJECT_ID": "1999-025DGK", "EPOCH": "2025-12-22T15:06:08.624736", "MEAN_MOTION": 14.55738562, "ECCENTRICITY": 0.01377331, "INCLINATION": 99.6233, "RA_OF_ASC_NODE": 318.2062, "ARG_OF_PERICENTER": 188.3951, "MEAN_ANOMALY": 171.4937, "EPHEMERIS_TYPE": 0, "CLASSIFICATION_TYPE": "U", "NORAD_CAT_ID": 33698, "ELEMENT_SET_NO": 999, "REV_AT_EPOCH": 95780, "BSTAR": 0.00019326653, "MEAN_MOTION_DOT": 8.92e-06, "MEAN_MOTION_DDOT": 0}, "tle": {"line1": "1 33698U 99025DGK 25356.62926649  .00000892  00000+0  19327-3 0  9992", "line2": "2 33698  99.6233 318.2062 0137733 188.3951 171.4937 14.55738562957801"}}, "geometry": {"type": "Point", "coordinates": [-29.864847213304554, -45.32589056681942]}}, {"type": "Feature", "properties": {"norad_id": 33710, "name": "FENGYUN 1C DEB", "group": "fengyun-1c-debris", "lat": 13.454542445460458, "lon": 95.09241579337214, "alt_km": 862.3147622412826, "timestamp": "2025-12-24T09:46:31.291318+00:00", "meta": {"OBJECT_NAME": "FENGYUN 1C DEB", "OBJECT_ID": "1999-025DGX", "EPOCH": "2025-12-21T00:03:36.214272", "MEAN_MOTION": 14.11669685, "ECCENTRICITY": 0.0055755, "INCLINATION": 98.9796, "RA_OF_ASC_NODE": 93.8537, "ARG_OF_PERICENTER": 124.643, "MEAN_ANOMALY": 236.0015, "EPHEMERIS_TYPE": 0, "CLASSIFICATION_TYPE": "U", "NORAD_CAT_ID": 33710, "ELEMENT_SET_NO": 999, "REV_AT_EPOCH": 67773, "BSTAR": 0.00081859653, "MEAN_MOTION_DOT": 1.467e-05, "MEAN_MOTION_DDOT": 0}, "tle": {"line1": "1 33710U 99025DGX 25355.00250248  .00001467  00000+0  81860-3 0  9993", "line2": "2 33710  98.9796  93.8537 0055755 124.6430 236.0015 14.11669685677730"}}, "geometry": {"type": "Point", "coordinates": [95.09241579337214, 13.454542445460458]}}, {"type": "Feature", "properties": {"norad_id": 33711, "name": "FENGYUN 1C DEB", "group": "fengyun-1c-debris", "lat": 70.15842235986287, "lon": 25.31325102215405, "alt_km": 844.8834428138243, "timestamp": "2025-12-24T09:46:31.291328+00:00", "meta": {"OBJECT_NAME": "FENGYUN 1C DEB", "OBJECT_ID": "1999-025DGY", "EPOCH": "2025-12-24T02:43:06.680928", "MEAN_MOTION": 14.00933986, "ECCENTRICITY": 0.0095586, "INCLINATION": 99.1807, "RA_OF_ASC_NODE": 51.6444, "ARG_OF_PERICENTER": 16.7002, "MEAN_ANOMALY": 12.6437, "EPHEMERIS_TYPE": 0, "CLASSIFICATION_TYPE": "U", "NORAD_CAT_ID": 33711, "ELEMENT_SET_NO": 999, "REV_AT_EPOCH": 92091, "BSTAR": 0.00047807, "MEAN_MOTION_DOT": 6.99e-06, "MEAN_MOTION_DDOT": 0}, "tle": {"line1": "1 33711U 99025DGY 25358.11327177  .00000699  00000+0  47807-3 0  9994", "line2": "2 33711  99.1807  51.6444 0095586  16.7002  12.6437 14.00933986920911"}}, "geometry": {"type": "Point", "coordinates": [25.31325102215405, 70.15842235986287]}}, {"type": "Feature", "properties": {"norad_id": 33716, "name": "FENGYUN 1C DEB", "group": "fengyun-1c-debris", "lat": -78.08577827203705, "lon": 56.48949924436061, "alt_km": 758.0649202738969, "timestamp": "2025-12-24T09:46:31.291338+00:00", "meta": {"OBJECT_NAME": "FENGYUN 1C DEB", "OBJECT_ID": "1999-025DHD", "EPOCH": "2025-12-20T00:37:45.434784", "MEAN_MOTION": 14.32676609, "ECCENTRICITY": 0.00932596, "INCLINATION": 98.8749, "RA_OF_ASC_NODE": 279.7817, "ARG_OF_PERICENTER": 336.6348, "MEAN_ANOMALY": 23.061, "EPHEMERIS_TYPE": 0, "CLASSIFICATION_TYPE": "U", "NORAD_CAT_ID": 33716, "ELEMENT_SET_NO": 999, "REV_AT_EPOCH": 65262, "BSTAR": 0.00013018796, "MEAN_MOTION_DOT": 3.24e-06, "MEAN_MOTION_DDOT": 0}, "tle": {"line1": "1 33716U 99025DHD 25354.02622031  .00000324  00000+0  13019-3 0  9995", "line2": "2 33716  98.8749 279.7817 0093259 336.6348  23.0610 14.32676609652626"}}, "geometry": {"type": "Point", "coordinates": [56.48949924436061, -78.08577827203705]}}, {"type": "Feature", "properties": {"norad_id": 33718, "name": "FENGYUN 1C DEB", "group": "fengyun-1c-debris", "lat": 46.02376056520215, "lon": 75.65727023757876, "alt_km": 896.0434836970862, "timestamp": "2025-12-24T09:46:31.291348+00:00", "meta": {"OBJECT_NAME": "FENGYUN 1C DEB", "OBJECT_ID": "1999-025DHF", "EPOCH": "2025-12-19T23:49:22.963296", "MEAN_MOTION": 14.08105706, "ECCENTRICITY": 0.00982331, "INCLINATION": 99.6592, "RA_OF_ASC_NODE": 81.1024, "ARG_OF_PERICENTER": 299.7261, "MEAN_ANOMALY": 59.4158, "EPHEMERIS_TYPE": 0, "CLASSIFICATION_TYPE": "U", "NORAD_CAT_ID": 33718, "ELEMENT_SET_NO": 999, "REV_AT_EPOCH": 69288, "BSTAR": 0.0010316732, "MEAN_MOTION_DOT": 1.786e-05, "MEAN_MOTION_DDOT": 0}, "tle": {"line1": "1 33718U 99025DHF 25353.99262689  .00001786  00000+0  10317-2 0  9991", "line2": "2 33718  99.6592  81.1024 0098233 299.7261  59.4158 14.08105706692888"}}, "geometry": {"type": "Point", "coordinates": [75.65727023757876, 46.02376056520215]}}, {"type": "Feature", "properties": {"norad_id": 33719, "name": "FENGYUN 1C DEB", "group": "fengyun-1c-debris", "lat": -23.14567675075979, "lon": -125.4420349726392, "alt_km": 838.6971982302284, "timestamp": "2025-12-24T09:46:31.291359+00:00", "meta": {"OBJECT_NAME": "FENGYUN 1C DEB", "OBJECT_ID": "1999-025DHG", "EPOCH": "2025-12-23T10:57:45.652032", "MEAN_MOTION": 14.23509629, "ECCENTRICITY": 0.00301549, "INCLINATION": 98.7741, "RA_OF_ASC_NODE": 57.3958, "ARG_OF_PERICENTER": 50.0095, "MEAN_ANOMALY": 324.8076, "EPHEMERIS_TYPE": 0, "CLASSIFICATION_TYPE": "U", "NORAD_CAT_ID": 33719, "ELEMENT_SET_NO": 999, "REV_AT_EPOCH": 92166, "BSTAR": 0.00068962426, "MEAN_MOTION_DOT": 1.532e-05, "MEAN_MOTION_DDOT": 0}, "tle": {"line1": "1 33719U 99025DHG 25357.45677838  .00001532  00000+0  68962-3 0  9992", "line2": "2 33719  98.7741  57.3958 0030154  50.0095 324.8076 14.23509629921665"}}, "geometry": {"type": "Point", "coordinates": [-125.4420349726392, -23.14567675075979]}}, {"type": "Feature", "properties": {"norad_id": 33722, "name": "FENGYUN 1C DEB", "group": "fengyun-1c-debris", "lat": 13.197820393602077, "lon": 10.403877865250436, "alt_km": 925.3965223713512, "timestamp": "2025-12-24T09:46:31.291369+00:00", "meta": {"OBJECT_NAME": "FENGYUN 1C DEB", "OBJECT_ID": "1999-025DHK", "EPOCH": "2025-12-23T18:30:20.892960", "MEAN_MOTION": 14.21389209, "ECCENTRICITY": 0.01584927, "INCLINATION": 98.574, "RA_OF_ASC_NODE": 11.8133, "ARG_OF_PERICENTER": 219.6106, "MEAN_ANOMALY": 139.3406, "EPHEMERIS_TYPE": 0, "CLASSIFICATION_TYPE": "U", "NORAD_CAT_ID": 33722, "ELEMENT_SET_NO": 999, "REV_AT_EPOCH": 92304, "BSTAR": 0.00051479883, "MEAN_MOTION_DOT": 1.233e-05, "MEAN_MOTION_DDOT": 0}, "tle": {"line1": "1 33722U 99025DHK 25357.77107515  .00001233  00000+0  51480-3 0  9996", "line2": "2 33722  98.5740  11.8133 0158492 219.6106 139.3406 14.21389209923046"}}, "geometry": {"type": "Point", "coordinates": [10.403877865250436, 13.197820393602077]}}, {"type": "Feature", "properties": {"norad_id": 33723, "name": "FENGYUN 1C DEB", "group": "fengyun-1c-debris", "lat": 38.96068619006305, "lon": -93.25865474199668, "alt_km": 910.4108443048217, "timestamp": "2025-12-24T09:46:31.291379+00:00", "meta": {"OBJECT_NAME": "FENGYUN 1C DEB", "OBJECT_ID": "1999-025DHL", "EPOCH": "2025-12-20T04:59:52.476864", "MEAN_MOTION": 14.13346573, "ECCENTRICITY": 0.00986593, "INCLINATION": 99.1535, "RA_OF_ASC_NODE": 74.9552, "ARG_OF_PERICENTER": 309.2442, "MEAN_ANOMALY": 78.1701, "EPHEMERIS_TYPE": 0, "CLASSIFICATION_TYPE": "U", "NORAD_CAT_ID": 33723, "ELEMENT_SET_NO": 999, "REV_AT_EPOCH": 63729, "BSTAR": 0.001358788, "MEAN_MOTION_DOT": 2.624e-05, "MEAN_MOTION_DDOT": 0}, "tle": {"line1": "1 33723U 99025DHL 25354.20824626  .00002624  00000+0  13588-2 0  9992", "line2": "2 33723  99.1535  74.9552 0098659 309.2442  78.1701 14.13346573637293"}}, "geometry": {"type": "Point", "coordinates": [-93.25865474199668, 38.96068619006305]}}, {"type": "Feature", "properties": {"norad_id": 33724, "name": "FENGYUN 1C DEB", "group": "fengyun-1c-debris", "lat": 40.375468598421406, "lon": -164.21978668682655, "alt_km": 803.4184246350014, "timestamp": "2025-12-24T09:46:31.291389+00:00", "meta": {"OBJECT_NAME": "FENGYUN 1C DEB", "OBJECT_ID": "1999-025DHM", "EPOCH": "2025-12-22T06:40:37.155648", "MEAN_MOTION": 14.19663244, "ECCENTRICITY": 0.00279005, "INCLINATION": 98.6032, "RA_OF_ASC_NODE": 6.3154, "ARG_OF_PERICENTER": 154.2406, "MEAN_ANOMALY": 269.5567, "EPHEMERIS_TYPE": 0, "CLASSIFICATION_TYPE": "U", "NORAD_CAT_ID": 33724, "ELEMENT_SET_NO": 999, "REV_AT_EPOCH": 94097, "BSTAR": 0.00040045162, "MEAN_MOTION_DOT": 8.07e-06, "MEAN_MOTION_DDOT": 0}, "tle": {"line1": "1 33724U 99025DHM 25356.27820782  .00000807  00000+0  40045-3 0  9991", "line2": "2 33724  98.6032   6.3154 0027900 154.2406 269.5567 14.19663244940977"}}, "geometry": {"type": "Point", "coordinates": [-164.21978668682655, 40.375468598421406]}}, {"type": "Feature", "properties": {"norad_id": 33726, "name": "FENGYUN 1C DEB", "group": "fengyun-1c-debris", "lat": -78.93153177612966, "lon": -108.75986578676378, "alt_km": 860.5647855604057, "timestamp": "2025-12-24T09:46:31.291399+00:00", "meta": {"OBJECT_NAME": "FENGYUN 1C DEB", "OBJECT_ID": "1999-025DHP", "EPOCH": "2025-12-22T07:25:21.024768", "MEAN_MOTION": 14.14317357, "ECCENTRICITY": 0.01922665, "INCLINATION": 98.6392, "RA_OF_ASC_NODE": 120.2126, "ARG_OF_PERICENTER": 3.7011, "MEAN_ANOMALY": 25.3001, "EPHEMERIS_TYPE": 0, "CLASSIFICATION_TYPE": "U", "NORAD_CAT_ID": 33726, "ELEMENT_SET_NO": 999, "REV_AT_EPOCH": 92067, "BSTAR": 0.00027067796, "MEAN_MOTION_DOT": 5.74e-06, "MEAN_MOTION_DDOT": 0}, "tle": {"line1": "1 33726U 99025DHP 25356.30927112  .00000574  00000+0  27068-3 0  9993", "line2": "2 33726  98.6392 120.2126 0192266   3.7011  25.3001 14.14317357920673"}}, "geometry": {"type": "Point", "coordinates": [-108.75986578676378, -78.93153177612966]}}]}